{
  "type": "FeatureCollection",
  "features": [
    {
      "type": "Feature",
      "properties": {
        "norad_id": 35593,
        "name": "COSMOS 2251 DEB",
        "group": "cosmos-2251-debris",
        "lat": 58.97407074983719,
        "lon": 90.85089370530739,
        "alt_km": 875.0571743125047,
        "timestamp": "2025-12-06T18:50:10.566075+00:00",
        "meta_object_name": "COSMOS 2251 DEB",
        "meta_object_id": "1993-036AML",
        "meta_epoch": "2025-12-06T06:29:47.973696",
        "meta_mean_motion": 14.25548393,
        "meta_eccentricity": 0.01053072,
        "meta_inclination": 74.0859,
        "meta_ra_of_asc_node": 300.0924,
        "meta_arg_of_pericenter": 308.0252,
        "meta_mean_anomaly": 51.1424,
        "meta_ephemeris_type": 0,
        "meta_classification_type": "U",
        "meta_norad_cat_id": 35593,
        "meta_element_set_no": 999,
        "meta_rev_at_epoch": 84973,
        "meta_bstar": 0.0026306785,
        "meta_mean_motion_dot": 6.575e-05,
        "meta_mean_motion_ddot": 0,
        "tle_line1": "1 35593U 93036AML 25340.27069414  .00006575  00000+0  26307-2 0  9995",
        "tle_line2": "2 35593  74.0859 300.0924 0105307 308.0252  51.1424 14.25548393849736"
      },
      "geometry": {
        "type": "Point",
        "coordinates": [
          90.85089370530739,
          58.97407074983719
        ]
      }
    },
    {
      "type": "Feature",
      "properties": {
        "norad_id": 35594,
        "name": "COSMOS 2251 DEB",
        "group": "cosmos-2251-debris",
        "lat": 13.634241152586712,
        "lon": -65.45930041088455,
        "alt_km": 596.3136172473769,
        "timestamp": "2025-12-06T18:50:10.566085+00:00",
        "meta_object_name": "COSMOS 2251 DEB",
        "meta_object_id": "1993-036AMM",
        "meta_epoch": "2025-12-01T02:30:04.449024",
        "meta_mean_motion": 14.8736155,
        "meta_eccentricity": 0.00313469,
        "meta_inclination": 73.8065,
        "meta_ra_of_asc_node": 130.0573,
        "meta_arg_of_pericenter": 241.1394,
        "meta_mean_anomaly": 118.6638,
        "meta_ephemeris_type": 0,
        "meta_classification_type": "U",
        "meta_norad_cat_id": 35594,
        "meta_element_set_no": 999,
        "meta_rev_at_epoch": 88012,
        "meta_bstar": 0.00176297,
        "meta_mean_motion_dot": 0.00016075,
        "meta_mean_motion_ddot": 0,
        "tle_line1": "1 35594U 93036AMM 25335.10421816  .00016075  00000+0  17630-2 0  9995",
        "tle_line2": "2 35594  73.8065 130.0573 0031346 241.1394 118.6638 14.87361550880129"
      },
      "geometry": {
        "type": "Point",
        "coordinates": [
          -65.45930041088455,
          13.634241152586712
        ]
      }
    },
    {
      "type": "Feature",
      "properties": {
        "norad_id": 35602,
        "name": "COSMOS 2251 DEB",
        "group": "cosmos-2251-debris",
        "lat": -10.624392226294189,
        "lon": -168.06902855365223,
        "alt_km": 461.70970441638656,
        "timestamp": "2025-12-06T18:50:10.566095+00:00",
        "meta_object_name": "COSMOS 2251 DEB",
        "meta_object_id": "1993-036AMV",
        "meta_epoch": "2025-12-05T09:14:10.334112",
        "meta_mean_motion": 15.34714955,
        "meta_eccentricity": 0.0090692,
        "meta_inclination": 73.9941,
        "meta_ra_of_asc_node": 198.0259,
        "meta_arg_of_pericenter": 265.4665,
        "meta_mean_anomaly": 270.7727,
        "meta_ephemeris_type": 0,
        "meta_classification_type": "U",
        "meta_norad_cat_id": 35602,
        "meta_element_set_no": 999,
        "meta_rev_at_epoch": 89978,
        "meta_bstar": 0.00072460009,
        "meta_mean_motion_dot": 0.00027961,
        "meta_mean_motion_ddot": 0,
        "tle_line1": "1 35602U 93036AMV 25339.38484183  .00027961  00000+0  72460-3 0  9994",
        "tle_line2": "2 35602  73.9941 198.0259 0090692 265.4665 270.7727 15.34714955899782"
      },
      "geometry": {
        "type": "Point",
        "coordinates": [
          -168.06902855365223,
          -10.624392226294189
        ]
      }
    },
    {
      "type": "Feature",
      "properties": {
        "norad_id": 35605,
        "name": "COSMOS 2251 DEB",
        "group": "cosmos-2251-debris",
        "lat": 73.82391872280752,
        "lon": 75.53818288719252,
        "alt_km": 485.0001254472254,
        "timestamp": "2025-12-06T18:50:10.566105+00:00",
        "meta_object_name": "COSMOS 2251 DEB",
        "meta_object_id": "1993-036AMY",
        "meta_epoch": "2025-12-06T07:28:08.851584",
        "meta_mean_motion": 15.30671694,
        "meta_eccentricity": 0.00298182,
        "meta_inclination": 73.8708,
        "meta_ra_of_asc_node": 350.4904,
        "meta_arg_of_pericenter": 287.5561,
        "meta_mean_anomaly": 72.2383,
        "meta_ephemeris_type": 0,
        "meta_classification_type": "U",
        "meta_norad_cat_id": 35605,
        "meta_element_set_no": 999,
        "meta_rev_at_epoch": 65873,
        "meta_bstar": 0.0096225277,
        "meta_mean_motion_dot": 0.00300684,
        "meta_mean_motion_ddot": 0,
        "tle_line1": "1 35605U 93036AMY 25340.31121356  .00300684  00000+0  96225-2 0  9992",
        "tle_line2": "2 35605  73.8708 350.4904 0029818 287.5561  72.2383 15.30671694658737"
      },
      "geometry": {
        "type": "Point",
        "coordinates": [
          75.53818288719252,
          73.82391872280752
        ]
      }
    },
    {
      "type": "Feature",
      "properties": {
        "norad_id": 35606,
        "name": "COSMOS 2251 DEB",
        "group": "cosmos-2251-debris",
        "lat": -72.80053663278686,
        "lon": -89.91371260939708,
        "alt_km": 833.6229007946085,
        "timestamp": "2025-12-06T18:50:10.566115+00:00",
        "meta_object_name": "COSMOS 2251 DEB",
        "meta_object_id": "1993-036AMZ",
        "meta_epoch": "2025-12-03T08:57:47.035584",
        "meta_mean_motion": 13.41186059,
        "meta_eccentricity": 0.04578387,
        "meta_inclination": 73.8109,
        "meta_ra_of_asc_node": 25.726,
        "meta_arg_of_pericenter": 232.8079,
        "meta_mean_anomaly": 123.0404,
        "meta_ephemeris_type": 0,
        "meta_classification_type": "U",
        "meta_norad_cat_id": 35606,
        "meta_element_set_no": 999,
        "meta_rev_at_epoch": 60914,
        "meta_bstar": 0.0017547479,
        "meta_mean_motion_dot": 1.782e-05,
        "meta_mean_motion_ddot": 0,
        "tle_line1": "1 35606U 93036AMZ 25337.37346106  .00001782  00000+0  17547-2 0  9994",
        "tle_line2": "2 35606  73.8109  25.7260 0457838 232.8079 123.0404 13.41186059609140"
      },
      "geometry": {
        "type": "Point",
        "coordinates": [
          -89.91371260939708,
          -72.80053663278686
        ]
      }
    },
    {
      "type": "Feature",
      "properties": {
        "norad_id": 35611,
        "name": "COSMOS 2251 DEB",
        "group": "cosmos-2251-debris",
        "lat": 73.95644573937716,
        "lon": -83.81126356332791,
        "alt_km": 660.8771410336503,
        "timestamp": "2025-12-06T18:50:10.566125+00:00",
        "meta_object_name": "COSMOS 2251 DEB",
        "meta_object_id": "1993-036ANE",
        "meta_epoch": "2025-12-06T00:29:55.775616",
        "meta_mean_motion": 14.72576947,
        "meta_eccentricity": 0.00221682,
        "meta_inclination": 74.0182,
        "meta_ra_of_asc_node": 192.3968,
        "meta_arg_of_pericenter": 266.2005,
        "meta_mean_anomaly": 93.6633,
        "meta_ephemeris_type": 0,
        "meta_classification_type": "U",
        "meta_norad_cat_id": 35611,
        "meta_element_set_no": 999,
        "meta_rev_at_epoch": 87191,
        "meta_bstar": 0.003154175,
        "meta_mean_motion_dot": 0.00020171,
        "meta_mean_motion_ddot": 0,
        "tle_line1": "1 35611U 93036ANE 25340.02078444  .00020171  00000+0  31542-2 0  9997",
        "tle_line2": "2 35611  74.0182 192.3968 0022168 266.2005  93.6633 14.72576947871916"
      },
      "geometry": {
        "type": "Point",
        "coordinates": [
          -83.81126356332791,
          73.95644573937716
        ]
      }
    },
    {
      "type": "Feature",
      "properties": {
        "norad_id": 35614,
        "name": "COSMOS 2251 DEB",
        "group": "cosmos-2251-debris",
        "lat": -26.733739009406683,
        "lon": -29.321717696433257,
        "alt_km": 715.5605393010437,
        "timestamp": "2025-12-06T18:50:10.566135+00:00",
        "meta_object_name": "COSMOS 2251 DEB",
        "meta_object_id": "1993-036ANH",
        "meta_epoch": "2025-12-05T08:35:34.166976",
        "meta_mean_motion": 14.66905481,
        "meta_eccentricity": 0.00762912,
        "meta_inclination": 73.9585,
        "meta_ra_of_asc_node": 341.7759,
        "meta_arg_of_pericenter": 198.0285,
        "meta_mean_anomaly": 161.8178,
        "meta_ephemeris_type": 0,
        "meta_classification_type": "U",
        "meta_norad_cat_id": 35614,
        "meta_element_set_no": 999,
        "meta_rev_at_epoch": 87621,
        "meta_bstar": 0.0016552596,
        "meta_mean_motion_dot": 9.649e-05,
        "meta_mean_motion_ddot": 0,
        "tle_line1": "1 35614U 93036ANH 25339.35803434  .00009649  00000+0  16553-2 0  9991",
        "tle_line2": "2 35614  73.9585 341.7759 0076291 198.0285 161.8178 14.66905481876212"
      },
      "geometry": {
        "type": "Point",
        "coordinates": [
          -29.321717696433257,
          -26.733739009406683
        ]
      }
    }
  ]
}